[{"OBJECT_NAME":"STARLINK-30286","OBJECT_ID":"2023-122R","EPOCH":"2026-03-09T22:00:01.999584","MEAN_MOTION":15.26734186,"ECCENTRICITY":0.00012555,"INCLINATION":43.0005,"RA_OF_ASC_NODE":91.0287,"ARG_OF_PERICENTER":253.8904,"MEAN_ANOMALY":114.3765,"EPHEMERIS_TYPE":0,"CLASSIFICATION_TYPE":"U","NORAD_CAT_ID":57647,"ELEMENT_SET_NO":999,"REV_AT_EPOCH":578,"BSTAR":0.0015305228,"MEAN_MOTION_DOT":0.00041016,"MEAN_MOTION_DDOT":0},{"OBJECT_NAME":"SIMSAT 1","OBJECT_ID":"2000-026A","EPOCH":"2026-03-09T17:22:54.646176","MEAN_MOTION":15.27666538,"ECCENTRICITY":0.00084816,"INCLINATION":86.3501,"RA_OF_ASC_NODE":180.5413,"ARG_OF_PERICENTER":14.8337,"MEAN_ANOMALY":345.3157,"EPHEMERIS_TYPE":0,"CLASSIFICATION_TYPE":"U","NORAD_CAT_ID":26365,"ELEMENT_SET_NO":999,"REV_AT_EPOCH":42720,"BSTAR":0.00013499313,"MEAN_MOTION_DOT":3.69e-5,"MEAN_MOTION_DDOT":0}]
